STARLINK-3978           
1 52635U 22052AP  26056.09411608  .00001599  00000+0  11857-3 0  9998
2 52635  53.2181 315.6699 0001390  78.8784 281.2364 15.08832312209232
STARLINK-3967           
1 52636U 22052AQ  26057.44375626  .00000715  00000+0  63026-4 0  9993
2 52636  53.2185 319.6091 0001210  85.4789 274.6341 15.08837549209291
STARLINK-3961           
1 52637U 22052AR  26057.68019974 -.00000066  00000+0  13950-4 0  9992
2 52637  53.2177 308.5476 0001036 100.6081 259.5028 15.08837950210278
STARLINK-3941           
1 52638U 22052AS  26057.10890076 -.00000751  00000+0 -29134-4 0  9993
2 52638  53.2175 321.1142 0001344  94.0172 266.0974 15.08815961210054
STARLINK-3968           
1 52639U 22052AT  26056.14560793  .00000952  00000+0  77860-4 0  9997
2 52639  53.2162 315.4374 0001315 103.5824 256.5315 15.08863712210041
STARLINK-3977           
1 52640U 22052AU  26057.68755937  .00001019  00000+0  82074-4 0  9993
2 52640  53.2167 308.5449 0001336  90.2306 269.8839 15.08843873209462
STARLINK-3991           
1 52641U 22052AV  26057.08869597  .00001252  00000+0  96715-4 0  9992
2 52641  53.2188 311.4075 0001640  88.1593 271.9587 15.08842501209388
STARLINK-3971           
1 52642U 22052AW  26057.67651577  .00000817  00000+0  69404-4 0  9996
2 52642  53.2166 308.5653 0001320  88.0703 272.0440 15.08840042209468
STARLINK-3963           
1 52643U 22052AX  26057.71795153 -.00001058  00000+0 -48399-4 0  9991
2 52643  53.2185 308.3469 0001514 103.7949 256.3212 15.08833668209474
STARLINK-3985           
1 52644U 22052AY  26057.73907825 -.00004025  00000+0 -23484-3 0  9999
2 52644  53.2176 308.2824 0001789  93.6511 266.4686 15.08848563209472
STARLINK-3973           
1 52645U 22052AZ  26057.72804960  .00000113  00000+0  25191-4 0  9995
2 52645  53.2203 308.4372 0001876  94.6423 265.4784 15.08839243209477
STARLINK-3832           
1 52646U 22052BA  26055.94324242 -.00001257  00000+0 -60912-4 0  9990
2 52646  53.2182 316.3813 0001339  92.5962 267.5184 15.08834106209213
STARLINK-3854           
1 52648U 22052BC  26057.65811755  .00000590  00000+0  55184-4 0  9994
2 52648  53.2193 308.6430 0001473  87.8766 272.2394 15.08835466209467
STARLINK-3868           
1 52649U 22052BD  26057.69857720 -.00001125  00000+0 -52591-4 0  9997
2 52649  53.2180 308.3172 0001566  89.6364 270.4808 15.08836975209489
STARLINK-3891           
1 52650U 22052BE  26057.66641413  .00002219  00000+0  15743-3 0  9996
2 52650  53.2174 298.7141 0001516  96.3116 263.8049 15.08848797209610
STARLINK-4004           
1 52656U 22053A   26057.69633088 -.00000281  00000+0  43417-6 0  9995
2 52656  53.2090 203.4801 0001019  84.1402 275.9706 15.08838813209454
STARLINK-4084           
1 52657U 22053B   26057.40197971  .00000995  00000+0  80613-4 0  9999
2 52657  53.2196 205.1137 0000938  90.9013 269.2087 15.08823339209708
STARLINK-4082           
1 52658U 22053C   26057.69905665 -.00000016  00000+0  17101-4 0  9995
2 52658  53.2169 203.4607 0001214  86.9324 273.1807 15.08837618209574
STARLINK-3960           
1 52659U 22053D   26057.43040782 -.00000453  00000+0 -10404-4 0  9993
2 52659  53.2158 204.6154 0001396  90.5196 269.5956 15.08838039209529
STARLINK-4081           
1 52660U 22053E   26057.75793517 -.00000614  00000+0 -20481-4 0  9996
2 52660  53.2171 203.1963 0001430  93.0881 267.0275 15.08837331209460
STARLINK-4044           
1 52662U 22053G   26057.81313568 -.00000045  00000+0  15295-4 0  9993
2 52662  53.2159 202.9485 0001400  95.0241 265.0911 15.08839774209405
STARLINK-4037           
1 52663U 22053H   26057.54449160  .00001581  00000+0  11742-3 0  9999
2 52663  53.2163 204.1579 0001430  81.8041 278.3113 15.08842261209364
STARLINK-4070           
1 52664U 22053J   26057.88305066  .00000783  00000+0  67254-4 0  9996
2 52664  53.2154 202.6345 0001198  89.2886 270.8244 15.08851853209414
STARLINK-4064           
1 52665U 22053K   26057.66593471  .00000390  00000+0  42553-4 0  9991
2 52665  53.2174 203.6093 0001098  88.8294 271.2824 15.08841476209380
STARLINK-4079           
1 52666U 22053L   26057.43772759 -.00000429  00000+0 -88965-5 0  9998
2 52666  53.2159 204.2455 0001371  89.8209 270.2940 15.08836358209352
STARLINK-4076           
1 52667U 22053M   26057.66225406  .00000034  00000+0  20210-4 0  9994
2 52667  53.2141 203.6243 0001214  89.9040 270.2091 15.08841016209389
STARLINK-4067           
1 52668U 22053N   26057.40465682 -.00000317  00000+0 -18557-5 0  9997
2 52668  53.2145 204.7818 0001347  92.1038 268.0109 15.08837544209346
STARLINK-3972           
1 52669U 22053P   26057.78368778  .00001010  00000+0  81572-4 0  9992
2 52669  53.2142 203.0805 0002929  60.6723 299.4562 15.08847403209391
STARLINK-4075           
1 52670U 22053Q   26057.67330564 -.00001141  00000+0 -53637-4 0  9992
2 52670  53.2170 203.6443 0001128  82.1738 277.9382 15.08839041209382
STARLINK-4071           
1 52671U 22053R   26057.38257374  .00000409  00000+0  43820-4 0  9995
2 52671  53.2154 204.8788 0001479  95.2630 264.8531 15.08837929209334
STARLINK-4073           
1 52672U 22053S   26057.12865619 -.00000213  00000+0  47313-5 0  9991
2 52672  53.2163 206.0207 0001333  86.8594 273.2551 15.08836914209293
STARLINK-3976           
1 52673U 22053T   26057.83889394  .00000863  00000+0  72308-4 0  9997
2 52673  53.2148 202.8303 0001313  94.9200 265.1942 15.08839683209403
STARLINK-3936           
1 52674U 22053U   26057.65489792  .00001955  00000+0  14090-3 0  9992
2 52674  53.2147 203.6570 0001108  82.1675 277.9443 15.08835609209383
STARLINK-3934           
1 52675U 22053V   26057.63741585 -.00000016  00000+0  17056-4 0  9996
2 52675  53.2169 193.7376 0001287  89.8425 270.2715 15.08838872209503
STARLINK-4006           
1 52676U 22053W   26057.77633470  .00000401  00000+0  43305-4 0  9998
2 52676  53.2117 203.1077 0001015  78.7287 281.3819 15.08836383209393
STARLINK-4074           
1 52678U 22053Y   26057.78094890 -.00000841  00000+0 -34746-4 0  9997
2 52678  53.2170 193.1984 0001876 104.1540 255.9661 15.08829426209527
STARLINK-4031           
1 52679U 22053Z   26057.81773783 -.00003040  00000+0 -17303-3 0  9990
2 52679  53.2165 192.9264 0001464  90.9686 269.1474 15.08833685209493
STARLINK-3774           
1 52680U 22053AA  26057.74410645  .00000330  00000+0  38846-4 0  9992
2 52680  53.2158 193.0245 0001003  46.1359 313.9716 15.08836896209503
STARLINK-4068           
1 52681U 22053AB  26057.81406769 -.00001084  00000+0 -49998-4 0  9992
2 52681  53.2160 192.9415 0002844  83.0663 277.0653 15.08828578209492
STARLINK-4017           
1 52682U 22053AC  26057.36141640  .00000454  00000+0  46607-4 0  9999
2 52682  53.2137 194.9718 0001175  85.8162 274.2965 15.08835456209448
STARLINK-4014           
1 52684U 22053AE  26057.35773514  .00000793  00000+0  67905-4 0  9991
2 52684  53.2168 194.9919 0001236  91.0155 269.0979 15.08839350209428
STARLINK-4029           
1 52685U 22053AF  26057.53437179  .00001073  00000+0  85528-4 0  9999
2 52685  53.2155 194.1977 0001449 103.1637 256.9517 15.08839827209430
STARLINK-4005           
1 52686U 22053AG  26057.77087978  .00000390  00000+0  42608-4 0  9997
2 52686  53.2181 193.4178 0001307  84.6169 275.4972 15.08842251209471
STARLINK-3981           
1 52687U 22053AH  26057.66317057  .00000785  00000+0  67397-4 0  9990
2 52687  53.2158 193.6205 0001292  86.8388 273.2752 15.08839465209452
STARLINK-4032           
1 52688U 22053AJ  26057.65947884  .00005592  00000+0  36934-3 0  9990
2 52688  53.2151 193.5219 0001336 102.7641 257.3501 15.08817929209455
STARLINK-4078           
1 52689U 22053AK  26057.50487993  .00068815  00000+0  11484-2 0  9994
2 52689  53.2111 137.3400 0002138  11.5440 348.5619 15.51352040210276
STARLINK-4035           
1 52690U 22053AL  26057.67053569  .00000259  00000+0  34340-4 0  9998
2 52690  53.2142 193.5863 0001158  81.3408 278.7715 15.08836376209459
STARLINK-3993           
1 52692U 22053AN  26057.36873142  .00000120  00000+0  25635-4 0  9997
2 52692  53.2179 194.6731 0001393  89.3230 270.7922 15.08844774209441
STARLINK-3946           
1 52693U 22053AP  26057.64108885 -.00001729  00000+0 -90551-4 0  9991
2 52693  53.2172 193.7197 0002597  95.3313 264.7976 15.08838079209484
STARLINK-4072           
1 52694U 22053AQ  26057.78829382 -.00001027  00000+0 -46444-4 0  9992
2 52694  53.2179 193.0584 0001480 100.7904 259.3255 15.08841489209504
STARLINK-4041           
1 52695U 22053AR  26057.42900942  .00000194  00000+0  30242-4 0  9997
2 52695  53.2158 199.4678 0000653  85.8402 274.2665 15.08836019209394
STARLINK-4018           
1 52697U 22053AT  26057.78695220  .00000036  00000+0  20362-4 0  9995
2 52697  53.2154 198.0659 0001282  87.6655 272.4484 15.08839283209446
STARLINK-4030           
1 52698U 22053AU  26057.53207191  .00000518  00000+0  50632-4 0  9993
2 52698  53.2165 199.2011 0001310  85.0313 275.0829 15.08837843209395
STARLINK-3987           
1 52699U 22053AV  26057.51091620  .00000372  00000+0  41433-4 0  9997
2 52699  53.2158 189.3340 0001221  96.9241 263.1890 15.08836179209550
STARLINK-4034           
1 52700U 22053AW  26056.82914500  .00000728  00000+0  63842-4 0  9997
2 52700  53.2125 202.0057 0001125  84.5712 275.5408 15.08840829209306
STARLINK-4033           
1 52702U 22053AY  26057.38855786  .00000445  00000+0  46077-4 0  9998
2 52702  53.2150 199.8825 0001349  91.3940 268.7206 15.08839621209385
STARLINK-4020           
1 52703U 22053AZ  26057.61257329  .00000305  00000+0  37292-4 0  9998
2 52703  53.2160 183.8579 0001790 101.5608 258.5585 15.08843159208366
STARLINK-3999           
1 52704U 22053BA  26057.62729634  .00000390  00000+0  42601-4 0  9997
2 52704  53.2160 183.7835 0001252  91.1782 268.9353 15.08841611209642
STARLINK-3844           
1 52705U 22053BB  26057.74873553  .00000337  00000+0  39273-4 0  9993
2 52705  53.2144 183.2356 0001698  85.8535 274.2651 15.08854724209660
